NORAD_CAT_ID,OBJECT_NAME,OBJECT_TYPE,EPOCH,MEAN_MOTION,ECCENTRICITY,INCLINATION,RA_OF_ASC_NODE,ARG_OF_PERICENTER,MEAN_ANOMALY,BSTAR,MEAN_MOTION_DOT,MEAN_MOTION_DDOT,TLE_LINE0,TLE_LINE1,TLE_LINE2,SEMIMAJOR_AXIS,PERIOD,APOGEE,PERIGEE,DECAYED
52858.0,STARLINK-4198,PAYLOAD,2022-10-04 22:00:00,15.08809775,0.0001483,53.2133,243.5408,52.877,121.9791,0.0021325,0.00033786,0.0,0 STARLINK-4198,1 52858U 22062AE  22277.91667824  .00033786  00000-0  21325-2 0  9995,2 52858  53.2133 243.5408 0001483  52.8770 121.9791 15.08809775 17444,6917.973000000001,95.439,540.864,538.812,0.0
52858.0,STARLINK-4198,PAYLOAD,2022-10-05 14:00:01,15.08834114,0.0001628,53.2139,240.5484,50.1459,147.9271,-0.0010327,-0.00016683,0.0,0 STARLINK-4198,1 52858U 22062AE  22278.58335648 -.00016683  00000-0 -10327-2 0  9994,2 52858  53.2139 240.5484 0001628  50.1459 147.9271 15.08834114  1301,6917.898,95.438,540.89,538.637,0.0
52858.0,STARLINK-4198,PAYLOAD,2022-10-05 22:00:00,15.08832479,0.0001673,53.2149,239.0515,58.3348,151.2489,-0.00099039,-0.00016012,0.0,0 STARLINK-4198,1 52858U 22062AE  22278.91667824 -.00016012  00000-0 -99039-3 0  9999,2 52858  53.2149 239.0515 0001673  58.3348 151.2489 15.08832479  1308,6917.903,95.438,540.9259999999998,538.611,0.0
52858.0,STARLINK-4198,PAYLOAD,2022-10-06 14:00:01,15.08866098,0.0001495,53.2145,236.0588,48.6167,184.1704,-0.0032549,-0.00051755,0.0,0 STARLINK-4198,1 52858U 22062AE  22279.58334491 -.00051755  00000-0 -32549-2 0  9999,2 52858  53.2145 236.0588 0001495  48.6167 184.1704 15.08866098  1303,6917.801,95.436,540.7,538.631,0.0
52858.0,STARLINK-4198,PAYLOAD,2022-10-06 22:42:55,15.08861953,0.0001411,53.2148,234.4284,51.0708,355.2243,-0.0021557,-0.00034453,0.0,0 STARLINK-4198,1 52858U 22062AE  22279.94646991 -.00034453  00000-0 -21557-2 0  9993,2 52858  53.2148 234.4284 0001411  51.0708 355.2243 15.08861953  1302,6917.813,95.436,540.654,538.702,0.0
52858.0,STARLINK-4198,PAYLOAD,2022-10-07 00:00:00,15.08868474,0.0001425,53.2148,234.1883,49.6911,287.5916,-0.0034181,-0.00054319,0.0,0 STARLINK-4198,1 52858U 22062AE  22280.00001157 -.00054319  00000-0 -34181-2 0  9991,2 52858  53.2148 234.1883 0001425  49.6911 287.5916 15.08868474 17753,6917.793000000002,95.436,540.644,538.673,0.0
52858.0,STARLINK-4198,PAYLOAD,2022-10-07 14:00:01,15.08849111,0.0001496,53.2151,231.5692,48.8122,218.7749,-0.0019175999999999,-0.00030685,0.0,0 STARLINK-4198,1 52858U 22062AE  22280.58334491 -.00030685  00000-0 -19176-2 0  9991,2 52858  53.2151 231.5692 0001496  48.8122 218.7749 15.08849111  1300,6917.853,95.437,540.752,538.683,0.0
52858.0,STARLINK-4198,PAYLOAD,2022-10-07 22:00:00,15.08831218,0.0001571,53.2154,230.0725,55.5574,223.6152,9.3972e-05,1.208e-05,0.0,0 STARLINK-4198,1 52858U 22062AE  22280.91667824  .00001208  00000-0  93972-4 0  9992,2 52858  53.2154 230.0725 0001571  55.5574 223.6152 15.08831218  1306,6917.906999999997,95.438,540.859,538.685,0.0
52858.0,STARLINK-4198,PAYLOAD,2022-10-08 14:00:01,15.08816874,0.0001629999999999,53.216,227.0799,52.4953,249.8483,-0.00081939,-0.00013297,0.0,0 STARLINK-4198,1 52858U 22062AE  22281.58334491 -.00013297  00000-0 -81939-3 0  9999,2 52858  53.2160 227.0799 0001630  52.4953 249.8483 15.08816874  1301,6917.951,95.439,540.944,538.688,0.0
52858.0,STARLINK-4198,PAYLOAD,2022-10-08 22:00:00,15.088281099999998,0.0001639,53.2163,225.5834,58.4613,255.4381,0.0012434,0.0001955,0.0,0 STARLINK-4198,1 52858U 22062AE  22281.91667824  .00019550  00000-0  12434-2 0  9994,2 52858  53.2163 225.5834 0001639  58.4613 255.4381 15.08828110  1301,6917.917,95.438,540.9159999999998,538.648,0.0
52858.0,STARLINK-4198,PAYLOAD,2022-10-09 06:00:00,15.08837542,0.0001739,53.2164,224.0886,50.4739,275.0197,0.00058377,9.014e-05,0.0,0 STARLINK-4198,1 52858U 22062AE  22282.25001157  .00009014  00000-0  58377-3 0  9994,2 52858  53.2164 224.0886 0001739  50.4739 275.0197 15.08837542 18091,6917.888000000001,95.438,540.956,538.55,0.0
52858.0,STARLINK-4198,PAYLOAD,2022-10-09 14:00:01,15.08848623,0.0001495,53.2166,222.5908,52.776,284.3176,-0.00014462,-2.589e-05,0.0,0 STARLINK-4198,1 52858U 22062AE  22282.58334491 -.00002589  00000-0 -14462-3 0  9999,2 52858  53.2166 222.5908 0001495  52.7760 284.3176 15.08848623  1307,6917.854,95.437,540.753,538.685,0.0
52858.0,STARLINK-4198,PAYLOAD,2022-10-09 22:00:00,15.08852586,0.0001476999999999,53.2172,221.0942,52.7101,295.9554,-0.0027108,-0.00043187,0.0,0 STARLINK-4198,1 52858U 22062AE  22282.91667824 -.00043187  00000-0 -27108-2 0  9994,2 52858  53.2172 221.0942 0001477  52.7101 295.9554 15.08852586 18191,6917.842,95.437,540.729,538.685,0.0
52858.0,STARLINK-4198,PAYLOAD,2022-10-10 00:00:00,15.08840128,0.0001541,53.2174,220.7209,49.0802,32.4871,-0.0016663,-0.00026709,0.0,0 STARLINK-4198,1 52858U 22062AE  22283.00001157 -.00026709  00000-0 -16663-2 0  9991,2 52858  53.2174 220.7209 0001541  49.0802  32.4871 15.08840128  1304,6917.88,95.438,540.811,538.679,0.0
52858.0,STARLINK-4198,PAYLOAD,2022-10-10 14:00:01,15.08836978,0.0001694,53.2175,218.1022,40.415,331.4261,-5.7759e-05,-1.207e-05,0.0,0 STARLINK-4198,1 52858U 22062AE  22283.58334491 -.00001207  00000-0 -57759-4 0  9993,2 52858  53.2175 218.1022 0001694  40.4150 331.4261 15.08836978  1302,6917.89,95.438,540.927,538.5830000000002,0.0
52858.0,STARLINK-4198,PAYLOAD,2022-10-10 16:00:00,15.08720022,0.000154,53.2173,217.7278,44.147,60.6745,0.0090772,0.00146717,0.0,0 STARLINK-4198,1 52858U 22062AE  22283.66667824  .00146717  00000-0  90772-2 0  9995,2 52858  53.2173 217.7278 0001540  44.1470  60.6745 15.08720022 18302,6918.246999999999,95.445,541.178,539.047,0.0
52858.0,STARLINK-4198,PAYLOAD,2022-10-10 22:00:01,15.08840042,0.0001675,53.2176,216.606,42.8156,340.6786,-0.00029771,-5.023e-05,0.0,0 STARLINK-4198,1 52858U 22062AE  22283.91668981 -.00005023  00000-0 -29771-3 0  9996,2 52858  53.2176 216.6060 0001675  42.8156 340.6786 15.08840042  1300,6917.88,95.438,540.904,538.587,0.0
52858.0,STARLINK-4198,PAYLOAD,2022-10-11 06:00:00,15.08780572,0.0001655,53.2167,215.1109,53.718,341.3242,0.0027763,0.00044102,0.0,0 STARLINK-4198,1 52858U 22062AE  22284.25001157  .00044102  00000-0  27763-2 0  9997,2 52858  53.2167 215.1109 0001655  53.7180 341.3242 15.08780572 18397,6918.062,95.441,541.072,538.7819999999998,0.0
52858.0,STARLINK-4198,PAYLOAD,2022-10-11 14:00:01,15.08825738,0.0001254,53.2176,213.6131,56.6956,349.9279,0.0010574999999999,0.00016576,0.0,0 STARLINK-4198,1 52858U 22062AE  22284.58334491  .00016576  00000-0  10575-2 0  9990,2 52858  53.2176 213.6131 0001254  56.6956 349.9279 15.08825738  1304,6917.924,95.438,540.656,538.9209999999998,0.0
52858.0,STARLINK-4198,PAYLOAD,2022-10-11 22:00:00,15.08837838,0.0001238,53.2177,212.1171,57.8093,0.4,-0.0001184,-2.172e-05,0.0,0 STARLINK-4198,1 52858U 22062AE  22284.91667824 -.00002172  00000-0 -11840-3 0  9992,2 52858  53.2177 212.1171 0001238  57.8093   0.4000 15.08837838  1305,6917.887,95.438,540.6080000000002,538.896,0.0
52858.0,STARLINK-4198,PAYLOAD,2022-10-12 06:00:00,15.08835946,0.0001629,53.2162,210.6222,55.3434,14.3984,0.0032066,0.0005111,0.0,0 STARLINK-4198,1 52858U 22062AE  22285.25001157  .00051110  00000-0  32066-2 0  9997,2 52858  53.2162 210.6222 0001629  55.3434  14.3984 15.08835946 18542,6917.893,95.438,540.885,538.631,0.0
52858.0,STARLINK-4198,PAYLOAD,2022-10-12 14:00:01,15.08841685,0.000151,53.2168,209.1238,61.0139,20.35,0.0014168,0.00022333,0.0,0 STARLINK-4198,1 52858U 22062AE  22285.58334491  .00022333  00000-0  14168-2 0  9991,2 52858  53.2168 209.1238 0001510  61.0139  20.3500 15.08841685  1307,6917.875,95.437,540.785,538.696,0.0
52858.0,STARLINK-4198,PAYLOAD,2022-10-12 22:00:00,15.08872531,0.0001554999999999,53.2172,207.6276,57.0325,35.9356,-0.0034839,-0.00055358,0.0,0 STARLINK-4198,1 52858U 22062AE  22285.91667824 -.00055358  00000-0 -34839-2 0  9999,2 52858  53.2172 207.6276 0001555  57.0325  35.9356 15.08872531 18648,6917.781,95.435,540.722,538.57,0.0
52858.0,STARLINK-4198,PAYLOAD,2022-10-13 14:00:01,15.0892769,0.0001666999999999,53.2172,204.6352,59.5636,56.5521,-0.0079494,-0.00124917,0.0,0 STARLINK-4198,1 52858U 22062AE  22286.58334491 -.00124917  00000-0 -79494-2 0  9998,2 52858  53.2172 204.6352 0001667  59.5636  56.5521 15.08927690  1301,6917.611999999999,95.432,540.631,538.3240000000002,0.0
52858.0,STARLINK-4198,PAYLOAD,2022-10-13 20:00:01,15.0883601,0.0001699,53.2176,203.5124,61.4539,333.4746,0.00011131,1.484e-05,0.0,0 STARLINK-4198,1 52858U 22062AE  22286.83335648  .00001484  00000-0  11131-3 0  9997,2 52858  53.2176 203.5124 0001699  61.4539 333.4746 15.08836010 18780,6917.893,95.438,540.933,538.582,0.0
52858.0,STARLINK-4198,PAYLOAD,2022-10-13 22:00:00,15.0883733,0.000173,53.2175,203.1389,59.9966,67.7664,-8.141600000000001e-05,-1.584e-05,0.0,0 STARLINK-4198,1 52858U 22062AE  22286.91667824 -.00001584  00000-0 -81416-4 0  9997,2 52858  53.2175 203.1389 0001730  59.9966  67.7664 15.08837330  1302,6917.889,95.438,540.95,538.557,0.0
52858.0,STARLINK-4198,PAYLOAD,2022-10-14 14:00:01,15.08893353,0.0001371,53.2172,200.1459,59.2707,91.6473,-0.0054332,-0.00085852,0.0,0 STARLINK-4198,1 52858U 22062AE  22287.58334491 -.00085852  00000-0 -54332-2 0  9997,2 52858  53.2172 200.1459 0001371  59.2707  91.6473 15.08893353  1302,6917.717,95.434,540.531,538.634,0.0
52858.0,STARLINK-4198,PAYLOAD,2022-10-14 22:00:00,15.08816262,0.0001628,53.2163,198.6498,63.0224,99.4755,0.0059891,0.00096271,0.0,0 STARLINK-4198,1 52858U 22062AE  22287.91667824  .00096271  00000-0  59891-2 0  9993,2 52858  53.2163 198.6498 0001628  63.0224  99.4755 15.08816262 18950,6917.953,95.439,540.944,538.692,0.0
52858.0,STARLINK-4198,PAYLOAD,2022-10-15 06:00:00,15.08835366,0.0001378,53.2172,197.1543,55.7154,118.4166,0.00020071,2.907e-05,0.0,0 STARLINK-4198,1 52858U 22062AE  22288.25001157  .00002907  00000-0  20071-3 0  9994,2 52858  53.2172 197.1543 0001378  55.7154 118.4166 15.08835366 19008,6917.895,95.438,540.7130000000002,538.806,0.0
